{
    "links": {
        "self": "http://www.neowsapp.com/rest/v1/neo/3759676?api_key=iIulBulltgU6a56xZRHN4H3l9WmuAYTsLGpBGhQ2"
    },
    "id": "3759676",
    "neo_reference_id": "3759676",
    "name": "(2016 MH3)",
    "designation": "2016 MH3",
    "nasa_jpl_url": "http://ssd.jpl.nasa.gov/sbdb.cgi?sstr=3759676",
    "absolute_magnitude_h": 26.992,
    "estimated_diameter": {
        "kilometers": {
            "estimated_diameter_min": 0.0106207449,
            "estimated_diameter_max": 0.0237487075
        },
        "meters": {
            "estimated_diameter_min": 10.6207448749,
            "estimated_diameter_max": 23.748707512
        },
        "miles": {
            "estimated_diameter_min": 0.0065994229,
            "estimated_diameter_max": 0.0147567581
        },
        "feet": {
            "estimated_diameter_min": 34.8449646155,
            "estimated_diameter_max": 77.9157095537
        }
    },
    "is_potentially_hazardous_asteroid": false,
    "close_approach_data": [
        {
            "close_approach_date": "2016-06-11",
            "close_approach_date_full": "2016-Jun-11 07:22",
            "epoch_date_close_approach": 1465629720000,
            "relative_velocity": {
                "kilometers_per_second": "5.2564342618",
                "kilometers_per_hour": "18923.1633424114",
                "miles_per_hour": "11758.1178001778"
            },
            "miss_distance": {
                "astronomical": "0.0217359332",
                "lunar": "8.4552780148",
                "kilometers": "3251649.309182284",
                "miles": "2020481.1897681592"
            },
            "orbiting_body": "Earth"
        }
    ],
    "orbital_data": {
        "orbit_id": "2",
        "orbit_determination_date": "2017-04-06 08:25:13",
        "first_observation_date": "2016-06-16",
        "last_observation_date": "2016-06-16",
        "data_arc_in_days": null,
        "observations_used": 14,
        "orbit_uncertainty": "9",
        "minimum_orbit_intersection": ".0198748",
        "jupiter_tisserand_invariant": "6.741",
        "epoch_osculation": "2457555.5",
        "eccentricity": ".2397069355351542",
        "semi_major_axis": ".8752054154621581",
        "inclination": "2.776596505629136",
        "ascending_node_longitude": "102.3541633454809",
        "orbital_period": "299.063506622422",
        "perihelion_distance": ".6654126073579527",
        "perihelion_argument": "13.96834460299448",
        "aphelion_distance": "1.084998223566364",
        "perihelion_time": "2457446.047066144635",
        "mean_anomaly": "131.7548123237889",
        "mean_motion": "1.203757703725826",
        "equinox": "J2000",
        "orbit_class": {
            "orbit_class_type": "ATE",
            "orbit_class_description": "Near-Earth asteroid orbits similar to that of 2062 Aten",
            "orbit_class_range": "a (semi-major axis) < 1.0 AU; q (perihelion) > 0.983 AU"
        }
    },
    "is_sentry_object": false
}